{
  "type": "FeatureCollection",
  "features": [
    {
      "type": "Feature",
      "properties": {
        "norad_id": 33835,
        "name": "COSMOS 2251 DEB",
        "group": "cosmos-2251-debris",
        "lat": -47.07465508223788,
        "lon": -60.35880753922638,
        "alt_km": 681.6359218778225,
        "timestamp": "2025-12-12T09:49:09.124690+00:00",
        "meta_object_name": "COSMOS 2251 DEB",
        "meta_object_id": "1993-036CC",
        "meta_epoch": "2025-12-12T01:05:42.080352",
        "meta_mean_motion": 14.6223936,
        "meta_eccentricity": 0.0054768,
        "meta_inclination": 74.0569,
        "meta_ra_of_asc_node": 102.4366,
        "meta_arg_of_pericenter": 156.1415,
        "meta_mean_anomaly": 320.0367,
        "meta_ephemeris_type": 0,
        "meta_classification_type": "U",
        "meta_norad_cat_id": 33835,
        "meta_element_set_no": 999,
        "meta_rev_at_epoch": 88779,
        "meta_bstar": 0.001723,
        "meta_mean_motion_dot": 8.855e-05,
        "meta_mean_motion_ddot": 0,
        "tle_line1": "1 33835U 93036CC  25346.04562593  .00008855  00000+0  17230-2 0  9997",
        "tle_line2": "2 33835  74.0569 102.4366 0054768 156.1415 320.0367 14.62239360887796"
      },
      "geometry": {
        "type": "Point",
        "coordinates": [
          -60.35880753922638,
          -47.07465508223788
        ]
      }
    },
    {
      "type": "Feature",
      "properties": {
        "norad_id": 33836,
        "name": "COSMOS 2251 DEB",
        "group": "cosmos-2251-debris",
        "lat": -49.49297449287047,
        "lon": 99.23291306659065,
        "alt_km": 644.8178819273289,
        "timestamp": "2025-12-12T09:49:09.124700+00:00",
        "meta_object_name": "COSMOS 2251 DEB",
        "meta_object_id": "1993-036CD",
        "meta_epoch": "2025-12-12T04:35:03.093792",
        "meta_mean_motion": 14.79604077,
        "meta_eccentricity": 0.0022596,
        "meta_inclination": 73.9972,
        "meta_ra_of_asc_node": 260.0334,
        "meta_arg_of_pericenter": 113.3831,
        "meta_mean_anomaly": 37.2154,
        "meta_ephemeris_type": 0,
        "meta_classification_type": "U",
        "meta_norad_cat_id": 33836,
        "meta_element_set_no": 999,
        "meta_rev_at_epoch": 64080,
        "meta_bstar": 0.0019662,
        "meta_mean_motion_dot": 0.00014799,
        "meta_mean_motion_ddot": 0,
        "tle_line1": "1 33836U 93036CD  25346.19100803  .00014799  00000+0  19662-2 0  9991",
        "tle_line2": "2 33836  73.9972 260.0334 0022596 113.3831  37.2154 14.79604077640809"
      },
      "geometry": {
        "type": "Point",
        "coordinates": [
          99.23291306659065,
          -49.49297449287047
        ]
      }
    },
    {
      "type": "Feature",
      "properties": {
        "norad_id": 33837,
        "name": "COSMOS 2251 DEB",
        "group": "cosmos-2251-debris",
        "lat": -60.739717313558955,
        "lon": -93.00232430648681,
        "alt_km": 708.7387249354679,
        "timestamp": "2025-12-12T09:49:09.124711+00:00",
        "meta_object_name": "COSMOS 2251 DEB",
        "meta_object_id": "1993-036CE",
        "meta_epoch": "2025-12-12T03:43:29.352576",
        "meta_mean_motion": 14.50699904,
        "meta_eccentricity": 0.0035856,
        "meta_inclination": 74.0132,
        "meta_ra_of_asc_node": 56.6987,
        "meta_arg_of_pericenter": 278.5024,
        "meta_mean_anomaly": 81.2074,
        "meta_ephemeris_type": 0,
        "meta_classification_type": "U",
        "meta_norad_cat_id": 33837,
        "meta_element_set_no": 999,
        "meta_rev_at_epoch": 88787,
        "meta_bstar": 0.00041905,
        "meta_mean_motion_dot": 1.632e-05,
        "meta_mean_motion_ddot": 0,
        "tle_line1": "1 33837U 93036CE  25346.15520084  .00001632  00000+0  41905-3 0  9993",
        "tle_line2": "2 33837  74.0132  56.6987 0035856 278.5024  81.2074 14.50699904887876"
      },
      "geometry": {
        "type": "Point",
        "coordinates": [
          -93.00232430648681,
          -60.739717313558955
        ]
      }
    },
    {
      "type": "Feature",
      "properties": {
        "norad_id": 33838,
        "name": "COSMOS 2251 DEB",
        "group": "cosmos-2251-debris",
        "lat": 55.911582802441885,
        "lon": -54.58908446735065,
        "alt_km": 742.5144294051261,
        "timestamp": "2025-12-12T09:49:09.124721+00:00",
        "meta_object_name": "COSMOS 2251 DEB",
        "meta_object_id": "1993-036CF",
        "meta_epoch": "2025-12-11T22:12:02.320704",
        "meta_mean_motion": 14.48359469,
        "meta_eccentricity": 0.0027463,
        "meta_inclination": 74.0364,
        "meta_ra_of_asc_node": 151.3392,
        "meta_arg_of_pericenter": 273.3203,
        "meta_mean_anomaly": 204.1445,
        "meta_ephemeris_type": 0,
        "meta_classification_type": "U",
        "meta_norad_cat_id": 33838,
        "meta_element_set_no": 999,
        "meta_rev_at_epoch": 88557,
        "meta_bstar": 0.00067537,
        "meta_mean_motion_dot": 2.512e-05,
        "meta_mean_motion_ddot": 0,
        "tle_line1": "1 33838U 93036CF  25345.92502686  .00002512  00000+0  67537-3 0  9993",
        "tle_line2": "2 33838  74.0364 151.3392 0027463 273.3203 204.1445 14.48359469885573"
      },
      "geometry": {
        "type": "Point",
        "coordinates": [
          -54.58908446735065,
          55.911582802441885
        ]
      }
    },
    {
      "type": "Feature",
      "properties": {
        "norad_id": 33839,
        "name": "COSMOS 2251 DEB",
        "group": "cosmos-2251-debris",
        "lat": 27.60978776702883,
        "lon": -144.27601102913636,
        "alt_km": 656.1326515196797,
        "timestamp": "2025-12-12T09:49:09.124732+00:00",
        "meta_object_name": "COSMOS 2251 DEB",
        "meta_object_id": "1993-036CG",
        "meta_epoch": "2025-12-12T02:11:50.593920",
        "meta_mean_motion": 14.64418002,
        "meta_eccentricity": 0.0085098,
        "meta_inclination": 74.039,
        "meta_ra_of_asc_node": 207.7254,
        "meta_arg_of_pericenter": 319.9398,
        "meta_mean_anomaly": 194.5273,
        "meta_ephemeris_type": 0,
        "meta_classification_type": "U",
        "meta_norad_cat_id": 33839,
        "meta_element_set_no": 999,
        "meta_rev_at_epoch": 89570,
        "meta_bstar": 0.00037598,
        "meta_mean_motion_dot": 2.063e-05,
        "meta_mean_motion_ddot": 0,
        "tle_line1": "1 33839U 93036CG  25346.09155780  .00002063  00000+0  37598-3 0  9997",
        "tle_line2": "2 33839  74.0390 207.7254 0085098 319.9398 194.5273 14.64418002895700"
      },
      "geometry": {
        "type": "Point",
        "coordinates": [
          -144.27601102913636,
          27.60978776702883
        ]
      }
    },
    {
      "type": "Feature",
      "properties": {
        "norad_id": 33841,
        "name": "COSMOS 2251 DEB",
        "group": "cosmos-2251-debris",
        "lat": 28.327496153579492,
        "lon": 89.7753021489068,
        "alt_km": 776.7768235514068,
        "timestamp": "2025-12-12T09:49:09.124756+00:00",
        "meta_object_name": "COSMOS 2251 DEB",
        "meta_object_id": "1993-036CJ",
        "meta_epoch": "2025-12-11T21:43:01.460928",
        "meta_mean_motion": 14.37858859,
        "meta_eccentricity": 0.0020493,
        "meta_inclination": 74.0378,
        "meta_ra_of_asc_node": 279.5789,
        "meta_arg_of_pericenter": 0.147,
        "meta_mean_anomaly": 60.947,
        "meta_ephemeris_type": 0,
        "meta_classification_type": "U",
        "meta_norad_cat_id": 33841,
        "meta_element_set_no": 999,
        "meta_rev_at_epoch": 88102,
        "meta_bstar": 0.00038561,
        "meta_mean_motion_dot": 1.14e-05,
        "meta_mean_motion_ddot": 0,
        "tle_line1": "1 33841U 93036CJ  25345.90487802  .00001140  00000+0  38561-3 0  9998",
        "tle_line2": "2 33841  74.0378 279.5789 0020493   0.1470  60.9470 14.37858859881020"
      },
      "geometry": {
        "type": "Point",
        "coordinates": [
          89.7753021489068,
          28.327496153579492
        ]
      }
    },
    {
      "type": "Feature",
      "properties": {
        "norad_id": 33842,
        "name": "COSMOS 2251 DEB",
        "group": "cosmos-2251-debris",
        "lat": 37.81383258593272,
        "lon": -126.89617903591352,
        "alt_km": 735.9489030577834,
        "timestamp": "2025-12-12T09:49:09.124767+00:00",
        "meta_object_name": "COSMOS 2251 DEB",
        "meta_object_id": "1993-036CK",
        "meta_epoch": "2025-12-12T01:18:58.032576",
        "meta_mean_motion": 14.42695495,
        "meta_eccentricity": 0.0047273,
        "meta_inclination": 74.0328,
        "meta_ra_of_asc_node": 220.9231,
        "meta_arg_of_pericenter": 328.3961,
        "meta_mean_anomaly": 31.4357,
        "meta_ephemeris_type": 0,
        "meta_classification_type": "U",
        "meta_norad_cat_id": 33842,
        "meta_element_set_no": 999,
        "meta_rev_at_epoch": 88327,
        "meta_bstar": 0.00044229,
        "meta_mean_motion_dot": 1.465e-05,
        "meta_mean_motion_ddot": 0,
        "tle_line1": "1 33842U 93036CK  25346.05483834  .00001465  00000+0  44229-3 0  9995",
        "tle_line2": "2 33842  74.0328 220.9231 0047273 328.3961  31.4357 14.42695495883270"
      },
      "geometry": {
        "type": "Point",
        "coordinates": [
          -126.89617903591352,
          37.81383258593272
        ]
      }
    }
  ]
}